BEIDOU-2 IGSO-1 (C06)   
1 36828U 10036A   26132.68902604 -.00000041  00000+0  00000+0 0  9990
2 36828  54.2951 163.2807 0058855 224.5644 197.8413  1.00282752 57743
BEIDOU-2 G4 (C04)       
1 37210U 10057A   26138.55947499 -.00000111  00000+0  00000+0 0  9990
2 37210   3.5737  69.1081 0005801 208.4240 320.1092  1.00271722 56997
BEIDOU-2 IGSO-2 (C07)   
1 37256U 10068A   26135.72421087 -.00000229  00000+0  00000+0 0  9998
2 37256  47.6108 272.2352 0054345 211.9136 116.2636  1.00294155 56461
BEIDOU-2 IGSO-3 (C08)   
1 37384U 11013A   26134.75077336 -.00000206  00000+0  00000+0 0  9992
2 37384  62.3634  40.4703 0033942 185.9417  24.6219  1.00276202 55324
BEIDOU-2 IGSO-4 (C09)   
1 37763U 11038A   26138.54426584  .00000042  00000+0  00000+0 0  9991
2 37763  54.5968 165.9374 0158475 231.3014 126.8254  1.00290752 54344
BEIDOU-2 IGSO-5 (C10)   
1 37948U 11073A   26137.85233549 -.00000175  00000+0  00000+0 0  9993
2 37948  47.7357 271.9194 0112017 220.5714 142.2249  1.00255237 52839
BEIDOU-2 G5 (C05)       
1 38091U 12008A   26138.46577083  .00000059  00000+0  00000+0 0  9994
2 38091   3.4997  69.8625 0010955 270.0915 122.5479  1.00272472 52074
BEIDOU-2 M3 (C11)       
1 38250U 12018A   26137.58206861 -.00000055  00000+0  00000+0 0  9994
2 38250  55.7849 305.9066 0019705 276.2878  83.4643  1.86229893 95379
BEIDOU-2 M4 (C12)       
1 38251U 12018B   26137.51432167 -.00000055  00000+0  00000+0 0  9998
2 38251  55.6853 305.1252 0010929 280.3706  79.4822  1.86229518 95376
BEIDOU-2 M6 (C14)       
1 38775U 12050B   26137.76112598 -.00000044  00000+0  00000+0 0  9993
2 38775  56.5190  63.9003 0014277 352.3537   7.6102  1.86230794 92746
BEIDOU-2 G6 (C02)       
1 38953U 12059A   26138.39951528 -.00000173  00000+0  00000+0 0  9997
2 38953   4.3460  73.8281 0010213 320.0713  70.0747  1.00270474 49619
BEIDOU-3S IGSO-1S (C31) 
1 40549U 15019A   26137.91275284 -.00000185  00000+0  00000+0 0  9998
2 40549  49.2532 295.8244 0038040 190.0346 172.1273  1.00256363 40778
BEIDOU-3S M2S (C58)     
1 40748U 15037A   26136.10634049 -.00000053  00000+0  00000+0 0  9991
2 40748  54.8996 303.1506 0007606 266.3231  93.5670  1.86232017 73523
BEIDOU-3S M1S (C57)     
1 40749U 15037B   26137.92831395 -.00000055  00000+0  00000+0 0  9998
2 40749  54.8952 303.0752 0004081  56.7843 303.2288  1.86254741 73560
BEIDOU-3S IGSO-2S (C56) 
1 40938U 15053A   26137.81400097 -.00000159  00000+0  00000+0 0  9990
2 40938  49.2706 259.1435 0064802 191.0722 174.7439  1.00266069 39057
BEIDOU-2 IGSO-6 (C13)   
1 41434U 16021A   26137.70302956 -.00000171  00000+0  00000+0 0  9995
2 41434  60.1850  38.3434 0057272 232.4586 312.1145  1.00264285 37179
BEIDOU-2 G7 (C03)       
1 41586U 16037A   26138.54737853 -.00000350  00000+0  00000+0 0  9990
2 41586   1.6467  69.0291 0007289 359.0235 115.7443  1.00266411  6596
BEIDOU-3 M1 (C19)       
1 43001U 17069A   26138.06346559 -.00000043  00000+0  00000+0 0  9995
2 43001  56.6672  64.0769 0011517 321.6495  38.2554  1.86231026 58042
BEIDOU-3 M2 (C20)       
1 43002U 17069B   26138.00213562 -.00000043  00000+0  00000+0 0  9997
2 43002  56.6663  64.1153 0009753 344.6982  15.2587  1.86230722 58038
BEIDOU-3 M7 (C27)       
1 43107U 18003A   26136.66985338 -.00000056  00000+0  00000+0 0  9993
2 43107  54.3572 303.4141 0005200  86.1202 273.9154  1.86228144 56766
BEIDOU-3 M8 (C28)       
1 43108U 18003B   26132.85647029 -.00000043  00000+0  00000+0 0  9999
2 43108  54.3540 303.5291 0002179 277.0252  82.9401  1.86231209 56700
BEIDOU-3 M4 (C22)       
1 43207U 18018A   26138.13174855 -.00000043  00000+0  00000+0 0  9994
2 43207  56.6264  64.1398 0007886   9.7385 350.2635  1.86230951 56188
BEIDOU-3 M3 (C21)       
1 43208U 18018B   26138.19821065 -.00000043  00000+0  00000+0 0  9993
2 43208  56.6257  64.1415 0009474 335.8350  24.1077  1.86230882 56181
BEIDOU-3 M9 (C29)       
1 43245U 18029A   26138.41587319 -.00000055  00000+0  00000+0 0  9995
2 43245  54.2213 300.9891 0000911 116.8366 243.1452  1.86228064 55344
BEIDOU-3 M10 (C30)      
1 43246U 18029B   26138.35038440 -.00000055  00000+0  00000+0 0  9995
2 43246  54.2199 301.0187 0004493  37.7043 322.2995  1.86229173 55321
BEIDOU-2 IGSO-7 (C16)   
1 43539U 18057A   26138.47677755 -.00000018  00000+0  00000+0 0  9991
2 43539  55.1880 163.3179 0104353 237.9724 118.3964  1.00260515 28825
BEIDOU-3 M5 (C23)       
1 43581U 18062A   26138.03765605  .00000073  00000+0  00000+0 0  9998
2 43581  54.0835 183.3297 0005066 287.6566  72.3769  1.86228757 53073
BEIDOU-3 M6 (C24)       
1 43582U 18062B   26137.36403050  .00000082  00000+0  00000+0 0  9997
2 43582  54.0833 183.3416 0004738  15.5717 344.5351  1.86227445 53069
BEIDOU-3 M12 (C26)      
1 43602U 18067A   26137.30242253  .00000084  00000+0  00000+0 0  9997
2 43602  54.1786 182.0879 0007743  31.4775 328.6606  1.86227757 52543
BEIDOU-3 M11 (C25)      
1 43603U 18067B   26138.51130242  .00000067  00000+0  00000+0 0  9997
2 43603  54.1756 182.0106 0004423  17.0296 343.0701  1.86227344 52598
BEIDOU-3 M13 (C32)      
1 43622U 18072A   26137.92932493 -.00000044  00000+0  00000+0 0  9992
2 43622  56.5993  63.6586 0008236 322.5217  37.4078  1.86231308 52098
